{
  "norad_id": 55263,
  "name": "USA 342",
  "history": [
    {
      "epoch": "2026-03-27T06:24:38.600352",
      "apogee_km": 35787.78659508332,
      "perigee_km": 35786.82522298499,
      "latitude_deg": 0.0004825492564079431,
      "longitude_deg": -4.057110719848424,
      "semi_major_axis_km": 42165.44290903416,
      "eccentricity": 1.14e-05,
      "inclination_deg": 0.0167,
      "raan_deg": 183.2424,
      "arg_perigee_deg": 195.5065,
      "mean_anomaly_deg": 285.9229,
      "mean_motion_rev_day": 1.00269249
    }
  ]
}